CCSDS_OMM_VERS = 2.0
CREATION_DATE  = 
ORIGINATOR     = 

OBJECT_NAME    = STARLINK-36367
OBJECT_ID      = 2026-020N
CENTER_NAME    = EARTH
REF_FRAME      = TEME
TIME_SYSTEM    = UTC
MEAN_ELEMENT_THEORY = SGP/SGP4

EPOCH          = 2026-02-06T04:00:01.999584
MEAN_MOTION    = 15.93097799
ECCENTRICITY   = .0001534
INCLINATION    = 43.0003
RA_OF_ASC_NODE = 334.1161
ARG_OF_PERICENTER = 268.9449
MEAN_ANOMALY   = 209.4318

EPHEMERIS_TYPE = 0
CLASSIFICATION_TYPE = U
NORAD_CAT_ID   = 67629
ELEMENT_SET_NO = 999
REV_AT_EPOCH   = 232
BSTAR          = -.48091E-2
MEAN_MOTION_DOT = -.1743234E-1
MEAN_MOTION_DDOT = .84593E-3

CCSDS_OMM_VERS = 2.0
CREATION_DATE  = 
ORIGINATOR     = 

OBJECT_NAME    = STARLINK-36416
OBJECT_ID      = 2026-020P
CENTER_NAME    = EARTH
REF_FRAME      = TEME
TIME_SYSTEM    = UTC
MEAN_ELEMENT_THEORY = SGP/SGP4

EPOCH          = 2026-02-06T04:00:01.999584
MEAN_MOTION    = 15.93306191
ECCENTRICITY   = .0001496
INCLINATION    = 43.0003
RA_OF_ASC_NODE = 334.1083
ARG_OF_PERICENTER = 267.9248
MEAN_ANOMALY   = 213.6456

EPHEMERIS_TYPE = 0
CLASSIFICATION_TYPE = U
NORAD_CAT_ID   = 67630
ELEMENT_SET_NO = 999
REV_AT_EPOCH   = 232
BSTAR          = -.47397E-2
MEAN_MOTION_DOT = -.1737132E-1
MEAN_MOTION_DDOT = .8422E-3

CCSDS_OMM_VERS = 2.0
CREATION_DATE  = 
ORIGINATOR     = 

OBJECT_NAME    = STARLINK-36527
OBJECT_ID      = 2026-020Q
CENTER_NAME    = EARTH
REF_FRAME      = TEME
TIME_SYSTEM    = UTC
MEAN_ELEMENT_THEORY = SGP/SGP4

EPOCH          = 2026-02-06T04:00:01.999584
MEAN_MOTION    = 15.93435374
ECCENTRICITY   = .0001532
INCLINATION    = 43.0004
RA_OF_ASC_NODE = 334.1036
ARG_OF_PERICENTER = 273.1104
MEAN_ANOMALY   = 210.3237

EPHEMERIS_TYPE = 0
CLASSIFICATION_TYPE = U
NORAD_CAT_ID   = 67631
ELEMENT_SET_NO = 999
REV_AT_EPOCH   = 232
BSTAR          = -.47051E-2
MEAN_MOTION_DOT = -.1736303E-1
MEAN_MOTION_DDOT = .84254E-3

CCSDS_OMM_VERS = 2.0
CREATION_DATE  = 
ORIGINATOR     = 

OBJECT_NAME    = STARLINK-36633
OBJECT_ID      = 2026-020R
CENTER_NAME    = EARTH
REF_FRAME      = TEME
TIME_SYSTEM    = UTC
MEAN_ELEMENT_THEORY = SGP/SGP4

EPOCH          = 2026-02-06T04:00:01.999584
MEAN_MOTION    = 15.93590834
ECCENTRICITY   = .0001598
INCLINATION    = 43.0003
RA_OF_ASC_NODE = 334.0978
ARG_OF_PERICENTER = 269.1043
MEAN_ANOMALY   = 216.5602

EPHEMERIS_TYPE = 0
CLASSIFICATION_TYPE = U
NORAD_CAT_ID   = 67632
ELEMENT_SET_NO = 999
REV_AT_EPOCH   = 232
BSTAR          = -.46161E-2
MEAN_MOTION_DOT = -.1717794E-1
MEAN_MOTION_DDOT = .82729E-3

CCSDS_OMM_VERS = 2.0
CREATION_DATE  = 
ORIGINATOR     = 

OBJECT_NAME    = STARLINK-36637
OBJECT_ID      = 2026-020S
CENTER_NAME    = EARTH
REF_FRAME      = TEME
TIME_SYSTEM    = UTC
MEAN_ELEMENT_THEORY = SGP/SGP4

EPOCH          = 2026-02-06T04:00:01.999584
MEAN_MOTION    = 15.93717310
ECCENTRICITY   = .0001503
INCLINATION    = 43.0004
RA_OF_ASC_NODE = 334.0934
ARG_OF_PERICENTER = 267.6331
MEAN_ANOMALY   = 219.8777

EPHEMERIS_TYPE = 0
CLASSIFICATION_TYPE = U
NORAD_CAT_ID   = 67633
ELEMENT_SET_NO = 999
REV_AT_EPOCH   = 232
BSTAR          = -.45747E-2
MEAN_MOTION_DOT = -.1713883E-1
MEAN_MOTION_DDOT = .82486E-3

CCSDS_OMM_VERS = 2.0
CREATION_DATE  = 
ORIGINATOR     = 

OBJECT_NAME    = STARLINK-36617
OBJECT_ID      = 2026-020T
CENTER_NAME    = EARTH
REF_FRAME      = TEME
TIME_SYSTEM    = UTC
MEAN_ELEMENT_THEORY = SGP/SGP4

EPOCH          = 2026-02-06T04:00:01.999584
MEAN_MOTION    = 15.93860086
ECCENTRICITY   = .0001484
INCLINATION    = 43.0005
RA_OF_ASC_NODE = 334.0877
ARG_OF_PERICENTER = 274.5064
MEAN_ANOMALY   = 215.1666

EPHEMERIS_TYPE = 0
CLASSIFICATION_TYPE = U
NORAD_CAT_ID   = 67634
ELEMENT_SET_NO = 999
REV_AT_EPOCH   = 232
BSTAR          = -.45339E-2
MEAN_MOTION_DOT = -.1711557E-1
MEAN_MOTION_DDOT = .82396E-3

CCSDS_OMM_VERS = 2.0
CREATION_DATE  = 
ORIGINATOR     = 

OBJECT_NAME    = STARLINK-36627
OBJECT_ID      = 2026-020U
CENTER_NAME    = EARTH
REF_FRAME      = TEME
TIME_SYSTEM    = UTC
MEAN_ELEMENT_THEORY = SGP/SGP4

EPOCH          = 2026-02-06T04:00:01.999584
MEAN_MOTION    = 15.94345476
ECCENTRICITY   = .0001464
INCLINATION    = 43.0005
RA_OF_ASC_NODE = 334.0684
ARG_OF_PERICENTER = 266.8800
MEAN_ANOMALY   = 230.4239

EPHEMERIS_TYPE = 0
CLASSIFICATION_TYPE = U
NORAD_CAT_ID   = 67635
ELEMENT_SET_NO = 999
REV_AT_EPOCH   = 232
BSTAR          = -.43691E-2
MEAN_MOTION_DOT = -.1692822E-1
MEAN_MOTION_DDOT = .81132E-3

CCSDS_OMM_VERS = 2.0
CREATION_DATE  = 
ORIGINATOR     = 

OBJECT_NAME    = STARLINK-36624
OBJECT_ID      = 2026-020V
CENTER_NAME    = EARTH
REF_FRAME      = TEME
TIME_SYSTEM    = UTC
MEAN_ELEMENT_THEORY = SGP/SGP4

EPOCH          = 2026-02-06T04:00:01.999584
MEAN_MOTION    = 15.94227563
ECCENTRICITY   = .0001591
INCLINATION    = 43.0006
RA_OF_ASC_NODE = 334.0731
ARG_OF_PERICENTER = 274.9596
MEAN_ANOMALY   = 220.6282

EPHEMERIS_TYPE = 0
CLASSIFICATION_TYPE = U
NORAD_CAT_ID   = 67636
ELEMENT_SET_NO = 999
REV_AT_EPOCH   = 232
BSTAR          = -.44064E-2
MEAN_MOTION_DOT = -.169655E-1
MEAN_MOTION_DDOT = .81366E-3

CCSDS_OMM_VERS = 2.0
CREATION_DATE  = 
ORIGINATOR     = 

OBJECT_NAME    = STARLINK-36610
OBJECT_ID      = 2026-020W
CENTER_NAME    = EARTH
REF_FRAME      = TEME
TIME_SYSTEM    = UTC
MEAN_ELEMENT_THEORY = SGP/SGP4

EPOCH          = 2026-02-06T04:00:01.999584
MEAN_MOTION    = 15.94535781
ECCENTRICITY   = .0001546
INCLINATION    = 43.0006
RA_OF_ASC_NODE = 334.0622
ARG_OF_PERICENTER = 274.0261
MEAN_ANOMALY   = 225.8149

EPHEMERIS_TYPE = 0
CLASSIFICATION_TYPE = U
NORAD_CAT_ID   = 67637
ELEMENT_SET_NO = 999
REV_AT_EPOCH   = 232
BSTAR          = -.43004E-2
MEAN_MOTION_DOT = -.1683407E-1
MEAN_MOTION_DDOT = .80454E-3

CCSDS_OMM_VERS = 2.0
CREATION_DATE  = 
ORIGINATOR     = 

OBJECT_NAME    = STARLINK-36599
OBJECT_ID      = 2026-020X
CENTER_NAME    = EARTH
REF_FRAME      = TEME
TIME_SYSTEM    = UTC
MEAN_ELEMENT_THEORY = SGP/SGP4

EPOCH          = 2026-02-06T04:00:01.999584
MEAN_MOTION    = 15.94698898
ECCENTRICITY   = .0001527
INCLINATION    = 43.0006
RA_OF_ASC_NODE = 334.0562
ARG_OF_PERICENTER = 268.1152
MEAN_ANOMALY   = 234.1046

EPHEMERIS_TYPE = 0
CLASSIFICATION_TYPE = U
NORAD_CAT_ID   = 67638
ELEMENT_SET_NO = 999
REV_AT_EPOCH   = 232
BSTAR          = -.42107E-2
MEAN_MOTION_DOT = -.1663065E-1
MEAN_MOTION_DDOT = .78798E-3

CCSDS_OMM_VERS = 2.0
CREATION_DATE  = 
ORIGINATOR     = 

OBJECT_NAME    = STARLINK-36595
OBJECT_ID      = 2026-020Y
CENTER_NAME    = EARTH
REF_FRAME      = TEME
TIME_SYSTEM    = UTC
MEAN_ELEMENT_THEORY = SGP/SGP4

EPOCH          = 2026-02-06T04:00:01.999584
MEAN_MOTION    = 15.94866637
ECCENTRICITY   = .0001515
INCLINATION    = 43.0006
RA_OF_ASC_NODE = 334.0505
ARG_OF_PERICENTER = 267.8301
MEAN_ANOMALY   = 236.6301

EPHEMERIS_TYPE = 0
CLASSIFICATION_TYPE = U
NORAD_CAT_ID   = 67639
ELEMENT_SET_NO = 999
REV_AT_EPOCH   = 232
BSTAR          = -.41684E-2
MEAN_MOTION_DOT = -.1661296E-1
MEAN_MOTION_DDOT = .78777E-3

CCSDS_OMM_VERS = 2.0
CREATION_DATE  = 
ORIGINATOR     = 

OBJECT_NAME    = STARLINK-36570
OBJECT_ID      = 2026-020Z
CENTER_NAME    = EARTH
REF_FRAME      = TEME
TIME_SYSTEM    = UTC
MEAN_ELEMENT_THEORY = SGP/SGP4

EPOCH          = 2026-02-06T04:00:01.999584
MEAN_MOTION    = 15.94980296
ECCENTRICITY   = .000155
INCLINATION    = 43.0005
RA_OF_ASC_NODE = 334.0459
ARG_OF_PERICENTER = 269.4898
MEAN_ANOMALY   = 236.6962

EPHEMERIS_TYPE = 0
CLASSIFICATION_TYPE = U
NORAD_CAT_ID   = 67640
ELEMENT_SET_NO = 999
REV_AT_EPOCH   = 232
BSTAR          = -.41308E-2
MEAN_MOTION_DOT = -.1656458E-1
MEAN_MOTION_DDOT = .78444E-3

CCSDS_OMM_VERS = 2.0
CREATION_DATE  = 
ORIGINATOR     = 

OBJECT_NAME    = STARLINK-36514
OBJECT_ID      = 2026-020AA
CENTER_NAME    = EARTH
REF_FRAME      = TEME
TIME_SYSTEM    = UTC
MEAN_ELEMENT_THEORY = SGP/SGP4

EPOCH          = 2026-02-06T04:00:01.999584
MEAN_MOTION    = 15.95351429
ECCENTRICITY   = .0001519
INCLINATION    = 43.0004
RA_OF_ASC_NODE = 334.0341
ARG_OF_PERICENTER = 267.6331
MEAN_ANOMALY   = 243.2910

EPHEMERIS_TYPE = 0
CLASSIFICATION_TYPE = U
NORAD_CAT_ID   = 67641
ELEMENT_SET_NO = 999
REV_AT_EPOCH   = 232
BSTAR          = -.41125E-2
MEAN_MOTION_DOT = -.1682185E-1
MEAN_MOTION_DDOT = .81014E-3

CCSDS_OMM_VERS = 2.0
CREATION_DATE  = 
ORIGINATOR     = 

OBJECT_NAME    = STARLINK-36556
OBJECT_ID      = 2026-020AB
CENTER_NAME    = EARTH
REF_FRAME      = TEME
TIME_SYSTEM    = UTC
MEAN_ELEMENT_THEORY = SGP/SGP4

EPOCH          = 2026-02-06T04:00:01.999584
MEAN_MOTION    = 15.95459180
ECCENTRICITY   = .0001476
INCLINATION    = 43.0004
RA_OF_ASC_NODE = 334.0290
ARG_OF_PERICENTER = 269.5544
MEAN_ANOMALY   = 243.2014

EPHEMERIS_TYPE = 0
CLASSIFICATION_TYPE = U
NORAD_CAT_ID   = 67642
ELEMENT_SET_NO = 999
REV_AT_EPOCH   = 232
BSTAR          = -.39989E-2
MEAN_MOTION_DOT = -.1645753E-1
MEAN_MOTION_DDOT = .7789E-3

CCSDS_OMM_VERS = 2.0
CREATION_DATE  = 
ORIGINATOR     = 

OBJECT_NAME    = STARLINK-36533
OBJECT_ID      = 2026-020AC
CENTER_NAME    = EARTH
REF_FRAME      = TEME
TIME_SYSTEM    = UTC
MEAN_ELEMENT_THEORY = SGP/SGP4

EPOCH          = 2026-02-06T04:00:01.999584
MEAN_MOTION    = 15.95161580
ECCENTRICITY   = .0001476
INCLINATION    = 43.0004
RA_OF_ASC_NODE = 334.0399
ARG_OF_PERICENTER = 269.7330
MEAN_ANOMALY   = 238.7438

EPHEMERIS_TYPE = 0
CLASSIFICATION_TYPE = U
NORAD_CAT_ID   = 67643
ELEMENT_SET_NO = 999
REV_AT_EPOCH   = 232
BSTAR          = -.41279E-2
MEAN_MOTION_DOT = -.1671379E-1
MEAN_MOTION_DDOT = .79901E-3

